STARLINK-2022           
1 47643U 21012Z   24188.56470776  .00002859  00000+0  21081-3 0  9993
2 47643  53.0541 275.0648 0001317  89.4350 270.6789 15.06393620188154
